STARLINK-37663          
1 69048U 26101Z   26142.27371883  .00140898  00000+0  92864-3 0  9992
2 69048  97.2847 356.9202 0001239 102.3561 257.7843 15.75224160  2568
QIANFAN-127             
1 69073U 26104A   26142.23043623  .00000050  00000+0  14988-4 0  9994
2 69073  88.9869 344.5880 0003909 181.4410 178.6772 14.25311309  1409
QIANFAN-128             
1 69074U 26104B   26141.81965457 -.01909871  00000+0 -10496+1 0  9994
2 69074  88.9866 344.6385 0010540 179.6379 180.4819 14.15592214  1341
QIANFAN-129             
1 69075U 26104C   26142.29604783  .00000069  00000+0  22646-4 0  9992
2 69075  88.9870 344.5792 0002940 164.7130 195.4153 14.26564380  1413
QIANFAN-130             
1 69076U 26104D   26142.23869617  .00000063  00000+0  22618-4 0  9999
2 69076  88.9870 344.5891 0003176 165.1094 195.0191 14.20281043  1403
QIANFAN-131             
1 69077U 26104E   26141.66733488 -.02095210  00000+0 -10695+1 0  9992
2 69077  88.9858 344.6532 0004047 185.9911 174.1231 14.19957687  1325
QIANFAN-132             
1 69078U 26104F   26142.24280466  .00000061  00000+0  22213-4 0  9990
2 69078  88.9869 344.5897 0003596 172.6100 187.5143 14.19619323  1403
QIANFAN-133             
1 69079U 26104G   26142.23728558  .00000063  00000+0  22721-4 0  9995
2 69079  88.9869 344.5889 0003462 190.7273 169.3844 14.20666413  1409
QIANFAN-134             
1 69080U 26104H   26142.23500650  .00000065  00000+0  23182-4 0  9992
2 69080  88.9869 344.5886 0003399 159.1470 200.9859 14.20842191  1402
QIANFAN-135             
1 69081U 26104J   26142.23368040  .00000064  00000+0  22689-4 0  9998
2 69081  88.9869 344.5886 0002834 204.7557 155.3498 14.21138615  1401
QIANFAN-136             
1 69082U 26104K   26141.87998714 -.02023004  00000+0 -10639+1 0  9996
2 69082  88.9856 344.6282 0008001 222.7870 137.2697 14.18204893  1351
QIANFAN-137             
1 69083U 26104L   26142.29818661  .00000089  00000+0  31454-4 0  9992
2 69083  88.9869 344.5794 0003406 174.1111 186.0123 14.25595691  1415
QIANFAN-138             
1 69084U 26104M   26141.80767024 -.02103081  00000+0 -10734+1 0  9999
2 69084  88.9862 344.6367 0003734 189.9392 170.1725 14.19983249  1342
QIANFAN-139             
1 69085U 26104N   26141.59599665 -.02118804  00000+0 -10545+1 0  9999
2 69085  88.9863 344.6604 0002424  50.0035 310.1368 14.21359417  1318
QIANFAN-140             
1 69086U 26104P   26141.66536519  .00000062  00000+0  19792-4 0  9996
2 69086  88.9869 344.6525 0002949 184.3544 175.7624 14.25612992  1320
QIANFAN-141             
1 69087U 26104Q   26141.59371819 -.01888321  00000+0 -93270+0 0  9992
2 69087  88.9865 344.6607 0004574 129.6918 230.4677 14.21283577  1316
QIANFAN-142             
1 69088U 26104R   26141.87485561 -.02049583  00000+0 -98707+0 0  9994
2 69088  88.9858 344.6296 0006124 122.9575 237.2207 14.22949492  1355
