[{"OBJECT_NAME":"STARLINK-37663","OBJECT_ID":"2026-101Z","EPOCH":"2026-05-22T06:34:09.306912","MEAN_MOTION":15.7522416,"ECCENTRICITY":0.00012397,"INCLINATION":97.2847,"RA_OF_ASC_NODE":356.9202,"ARG_OF_PERICENTER":102.3561,"MEAN_ANOMALY":257.7843,"EPHEMERIS_TYPE":0,"CLASSIFICATION_TYPE":"U","NORAD_CAT_ID":69048,"ELEMENT_SET_NO":999,"REV_AT_EPOCH":256,"BSTAR":0.0009286427,"MEAN_MOTION_DOT":0.00140898,"MEAN_MOTION_DDOT":0},{"OBJECT_NAME":"QIANFAN-127","OBJECT_ID":"2026-104A","EPOCH":"2026-05-22T05:31:49.690272","MEAN_MOTION":14.25311309,"ECCENTRICITY":0.00039098,"INCLINATION":88.9869,"RA_OF_ASC_NODE":344.588,"ARG_OF_PERICENTER":181.441,"MEAN_ANOMALY":178.6772,"EPHEMERIS_TYPE":0,"CLASSIFICATION_TYPE":"U","NORAD_CAT_ID":69073,"ELEMENT_SET_NO":999,"REV_AT_EPOCH":140,"BSTAR":1.498774e-05,"MEAN_MOTION_DOT":5e-07,"MEAN_MOTION_DDOT":0},{"OBJECT_NAME":"QIANFAN-128","OBJECT_ID":"2026-104B","EPOCH":"2026-05-21T19:40:18.154848","MEAN_MOTION":14.15592214,"ECCENTRICITY":0.00105405,"INCLINATION":88.9866,"RA_OF_ASC_NODE":344.6385,"ARG_OF_PERICENTER":179.6379,"MEAN_ANOMALY":180.4819,"EPHEMERIS_TYPE":0,"CLASSIFICATION_TYPE":"U","NORAD_CAT_ID":69074,"ELEMENT_SET_NO":999,"REV_AT_EPOCH":134,"BSTAR":-1.0495544,"MEAN_MOTION_DOT":-0.01909871,"MEAN_MOTION_DDOT":0},{"OBJECT_NAME":"QIANFAN-129","OBJECT_ID":"2026-104C","EPOCH":"2026-05-22T07:06:18.532512","MEAN_MOTION":14.2656438,"ECCENTRICITY":0.000294,"INCLINATION":88.987,"RA_OF_ASC_NODE":344.5792,"ARG_OF_PERICENTER":164.713,"MEAN_ANOMALY":195.4153,"EPHEMERIS_TYPE":0,"CLASSIFICATION_TYPE":"U","NORAD_CAT_ID":69075,"ELEMENT_SET_NO":999,"REV_AT_EPOCH":141,"BSTAR":2.2646099e-05,"MEAN_MOTION_DOT":6.9e-07,"MEAN_MOTION_DDOT":0},{"OBJECT_NAME":"QIANFAN-130","OBJECT_ID":"2026-104D","EPOCH":"2026-05-22T05:43:43.349088","MEAN_MOTION":14.20281043,"ECCENTRICITY":0.00031763,"INCLINATION":88.987,"RA_OF_ASC_NODE":344.5891,"ARG_OF_PERICENTER":165.1094,"MEAN_ANOMALY":195.0191,"EPHEMERIS_TYPE":0,"CLASSIFICATION_TYPE":"U","NORAD_CAT_ID":69076,"ELEMENT_SET_NO":999,"REV_AT_EPOCH":140,"BSTAR":2.26184e-05,"MEAN_MOTION_DOT":6.3e-07,"MEAN_MOTION_DDOT":0},{"OBJECT_NAME":"QIANFAN-131","OBJECT_ID":"2026-104E","EPOCH":"2026-05-21T16:00:57.733632","MEAN_MOTION":14.19957687,"ECCENTRICITY":0.00040474,"INCLINATION":88.9858,"RA_OF_ASC_NODE":344.6532,"ARG_OF_PERICENTER":185.9911,"MEAN_ANOMALY":174.1231,"EPHEMERIS_TYPE":0,"CLASSIFICATION_TYPE":"U","NORAD_CAT_ID":69077,"ELEMENT_SET_NO":999,"REV_AT_EPOCH":132,"BSTAR":-1.0695185,"MEAN_MOTION_DOT":-0.0209521,"MEAN_MOTION_DDOT":0},{"OBJECT_NAME":"QIANFAN-132","OBJECT_ID":"2026-104F","EPOCH":"2026-05-22T05:49:38.322624","MEAN_MOTION":14.19619323,"ECCENTRICITY":0.00035968,"INCLINATION":88.9869,"RA_OF_ASC_NODE":344.5897,"ARG_OF_PERICENTER":172.61,"MEAN_ANOMALY":187.5143,"EPHEMERIS_TYPE":0,"CLASSIFICATION_TYPE":"U","NORAD_CAT_ID":69078,"ELEMENT_SET_NO":999,"REV_AT_EPOCH":140,"BSTAR":2.2212834e-05,"MEAN_MOTION_DOT":6.1e-07,"MEAN_MOTION_DDOT":0},{"OBJECT_NAME":"QIANFAN-133","OBJECT_ID":"2026-104G","EPOCH":"2026-05-22T05:41:41.474112","MEAN_MOTION":14.20666413,"ECCENTRICITY":0.00034625,"INCLINATION":88.9869,"RA_OF_ASC_NODE":344.5889,"ARG_OF_PERICENTER":190.7273,"MEAN_ANOMALY":169.3844,"EPHEMERIS_TYPE":0,"CLASSIFICATION_TYPE":"U","NORAD_CAT_ID":69079,"ELEMENT_SET_NO":999,"REV_AT_EPOCH":140,"BSTAR":2.2720667e-05,"MEAN_MOTION_DOT":6.3e-07,"MEAN_MOTION_DDOT":0},{"OBJECT_NAME":"QIANFAN-134","OBJECT_ID":"2026-104H","EPOCH":"2026-05-22T05:38:24.561600","MEAN_MOTION":14.20842191,"ECCENTRICITY":0.00033998,"INCLINATION":88.9869,"RA_OF_ASC_NODE":344.5886,"ARG_OF_PERICENTER":159.147,"MEAN_ANOMALY":200.9859,"EPHEMERIS_TYPE":0,"CLASSIFICATION_TYPE":"U","NORAD_CAT_ID":69080,"ELEMENT_SET_NO":999,"REV_AT_EPOCH":140,"BSTAR":2.3181608e-05,"MEAN_MOTION_DOT":6.5e-07,"MEAN_MOTION_DDOT":0},{"OBJECT_NAME":"QIANFAN-135","OBJECT_ID":"2026-104J","EPOCH":"2026-05-22T05:36:29.986560","MEAN_MOTION":14.21138615,"ECCENTRICITY":0.00028346,"INCLINATION":88.9869,"RA_OF_ASC_NODE":344.5886,"ARG_OF_PERICENTER":204.7557,"MEAN_ANOMALY":155.3498,"EPHEMERIS_TYPE":0,"CLASSIFICATION_TYPE":"U","NORAD_CAT_ID":69081,"ELEMENT_SET_NO":999,"REV_AT_EPOCH":140,"BSTAR":2.2689374e-05,"MEAN_MOTION_DOT":6.4e-07,"MEAN_MOTION_DDOT":0},{"OBJECT_NAME":"QIANFAN-136","OBJECT_ID":"2026-104K","EPOCH":"2026-05-21T21:07:10.888896","MEAN_MOTION":14.18204893,"ECCENTRICITY":0.00080012,"INCLINATION":88.9856,"RA_OF_ASC_NODE":344.6282,"ARG_OF_PERICENTER":222.787,"MEAN_ANOMALY":137.2697,"EPHEMERIS_TYPE":0,"CLASSIFICATION_TYPE":"U","NORAD_CAT_ID":69082,"ELEMENT_SET_NO":999,"REV_AT_EPOCH":135,"BSTAR":-1.0638501,"MEAN_MOTION_DOT":-0.02023004,"MEAN_MOTION_DDOT":0},{"OBJECT_NAME":"QIANFAN-137","OBJECT_ID":"2026-104L","EPOCH":"2026-05-22T07:09:23.323104","MEAN_MOTION":14.25595691,"ECCENTRICITY":0.00034063,"INCLINATION":88.9869,"RA_OF_ASC_NODE":344.5794,"ARG_OF_PERICENTER":174.1111,"MEAN_ANOMALY":186.0123,"EPHEMERIS_TYPE":0,"CLASSIFICATION_TYPE":"U","NORAD_CAT_ID":69083,"ELEMENT_SET_NO":999,"REV_AT_EPOCH":141,"BSTAR":3.1453625e-05,"MEAN_MOTION_DOT":8.9e-07,"MEAN_MOTION_DDOT":0},{"OBJECT_NAME":"QIANFAN-138","OBJECT_ID":"2026-104M","EPOCH":"2026-05-21T19:23:02.708736","MEAN_MOTION":14.19983249,"ECCENTRICITY":0.00037345,"INCLINATION":88.9862,"RA_OF_ASC_NODE":344.6367,"ARG_OF_PERICENTER":189.9392,"MEAN_ANOMALY":170.1725,"EPHEMERIS_TYPE":0,"CLASSIFICATION_TYPE":"U","NORAD_CAT_ID":69084,"ELEMENT_SET_NO":999,"REV_AT_EPOCH":134,"BSTAR":-1.0733613,"MEAN_MOTION_DOT":-0.02103081,"MEAN_MOTION_DDOT":0},{"OBJECT_NAME":"QIANFAN-139","OBJECT_ID":"2026-104N","EPOCH":"2026-05-21T14:18:14.110560","MEAN_MOTION":14.21359417,"ECCENTRICITY":0.00024244,"INCLINATION":88.9863,"RA_OF_ASC_NODE":344.6604,"ARG_OF_PERICENTER":50.0035,"MEAN_ANOMALY":310.1368,"EPHEMERIS_TYPE":0,"CLASSIFICATION_TYPE":"U","NORAD_CAT_ID":69085,"ELEMENT_SET_NO":999,"REV_AT_EPOCH":131,"BSTAR":-1.0544826,"MEAN_MOTION_DOT":-0.02118804,"MEAN_MOTION_DDOT":0},{"OBJECT_NAME":"QIANFAN-140","OBJECT_ID":"2026-104P","EPOCH":"2026-05-21T15:58:07.552416","MEAN_MOTION":14.25612992,"ECCENTRICITY":0.00029499,"INCLINATION":88.9869,"RA_OF_ASC_NODE":344.6525,"ARG_OF_PERICENTER":184.3544,"MEAN_ANOMALY":175.7624,"EPHEMERIS_TYPE":0,"CLASSIFICATION_TYPE":"U","NORAD_CAT_ID":69086,"ELEMENT_SET_NO":999,"REV_AT_EPOCH":132,"BSTAR":1.9791716e-05,"MEAN_MOTION_DOT":6.2e-07,"MEAN_MOTION_DDOT":0},{"OBJECT_NAME":"QIANFAN-141","OBJECT_ID":"2026-104Q","EPOCH":"2026-05-21T14:14:57.251616","MEAN_MOTION":14.21283577,"ECCENTRICITY":0.00045748,"INCLINATION":88.9865,"RA_OF_ASC_NODE":344.6607,"ARG_OF_PERICENTER":129.6918,"MEAN_ANOMALY":230.4677,"EPHEMERIS_TYPE":0,"CLASSIFICATION_TYPE":"U","NORAD_CAT_ID":69087,"ELEMENT_SET_NO":999,"REV_AT_EPOCH":131,"BSTAR":-0.93270393,"MEAN_MOTION_DOT":-0.01888321,"MEAN_MOTION_DDOT":0},{"OBJECT_NAME":"QIANFAN-142","OBJECT_ID":"2026-104R","EPOCH":"2026-05-21T20:59:47.524704","MEAN_MOTION":14.22949492,"ECCENTRICITY":0.00061246,"INCLINATION":88.9858,"RA_OF_ASC_NODE":344.6296,"ARG_OF_PERICENTER":122.9575,"MEAN_ANOMALY":237.2207,"EPHEMERIS_TYPE":0,"CLASSIFICATION_TYPE":"U","NORAD_CAT_ID":69088,"ELEMENT_SET_NO":999,"REV_AT_EPOCH":135,"BSTAR":-0.98706869,"MEAN_MOTION_DOT":-0.02049583,"MEAN_MOTION_DDOT":0}]